43072,IRIDIUM 116,2017,100.4,860.0,+,86.4,Active,1,LEO,USA,USA,Commercial/Government,Communications,Falcon,1 43072U 17083C   24264.60053579  .00000947  00000+0  33107-3 0  9994,2 43072  86.3967 227.1667 0002316  88.1489 271.9972 14.34214946353217,14.34214946,0.0002316,LEO
43073,IRIDIUM 130,2017,100.4,860.0,+,86.4,Active,1,LEO,USA,USA,Commercial/Government,Communications,Falcon,1 43073U 17083D   24264.35951605  .00000193  00000+0  62008-4 0  9990,2 43073  86.3973 227.4796 0002282  98.8799 261.2655 14.34216299353128,14.34216299,0.0002282,LEO
43074,IRIDIUM 151,2017,100.4,860.0,+,86.4,Active,1,LEO,USA,USA,Commercial/Government,Communications,Falcon,1 43074U 17083E   24264.61321975  .00000765  00000+0  26626-3 0  9991,2 43074  86.3971 227.2045 0002461  83.1218 277.0258 14.34215299353183,14.34215299,0.0002461,LEO
43075,IRIDIUM 134,2017,100.4,860.0,+,86.4,Active,1,LEO,USA,USA,Commercial/Government,Communications,Falcon,1 43075U 17083F   24264.30243619  .00000062  00000+0  14992-4 0  9990,2 43075  86.3972 227.3340 0002238  91.3320 268.8132 14.34214088353107,14.34214088,0.0002238,LEO
43076,IRIDIUM 137,2017,100.4,860.0,+,86.4,Active,1,LEO,USA,USA,Commercial/Government,Communications,Falcon,1 43076U 17083G   24264.38488540  .00000027  00000+0  27275-5 0  9993,2 43076  86.3973 227.3795 0002811  86.2910 273.8607 14.34215069353189,14.34215069,0.0002811,LEO
43077,IRIDIUM 141,2017,100.4,860.0,+,86.4,Active,1,LEO,USA,USA,Commercial/Government,Communications,Falcon,1 43077U 17083H   24264.30878705  .00000381  00000+0  12887-3 0  9996,2 43077  86.3967 227.2782 0002266  84.2346 275.9108 14.34211107353170,14.34211107,0.0002266,LEO
43078,IRIDIUM 153,2017,100.4,860.0,+,86.4,Active,1,LEO,USA,USA,Commercial/Government,Communications,Falcon,1 43078U 17083J   24264.54003807  .00000934  00000+0  32626-3 0  9993,2 43078  86.4036 195.6943 0002045  68.3492 291.7922 14.34220377354312,14.34220377,0.0002045,LEO
43079,IRIDIUM 131,2017,100.4,860.0,+,86.4,Active,1,LEO,USA,USA,Commercial/Government,Communications,Falcon,1 43079U 17083K   24264.36585942  .00000874  00000+0  30510-3 0  9992,2 43079  86.3976 227.3980 0002333  82.0280 278.1180 14.34213457353110,14.34213457,0.0002333,LEO
